{
  "type": "FeatureCollection",
  "features": [
    {
      "type": "Feature",
      "properties": {
        "norad_id": 66638,
        "name": "STARLINK-35972",
        "group": "last-30-days",
        "lat": 30.103863433314906,
        "lon": -43.303093170878185,
        "alt_km": 414.85160072128474,
        "timestamp": "2025-12-17T21:39:44.491225+00:00",
        "meta_object_name": "STARLINK-35972",
        "meta_object_id": "2025-271X",
        "meta_epoch": "2025-12-17T13:18:55.266048",
        "meta_mean_motion": 15.49336072,
        "meta_eccentricity": 0.00010961,
        "meta_inclination": 53.1592,
        "meta_ra_of_asc_node": 164.1253,
        "meta_arg_of_pericenter": 51.5833,
        "meta_mean_anomaly": 308.5275,
        "meta_ephemeris_type": 0,
        "meta_classification_type": "U",
        "meta_norad_cat_id": 66638,
        "meta_element_set_no": 999,
        "meta_rev_at_epoch": 495,
        "meta_bstar": 0.0012564551,
        "meta_mean_motion_dot": 0.00070127,
        "meta_mean_motion_ddot": 0,
        "tle_line1": "1 66638U 25271X   25351.55480632  .00070127  00000+0  12565-2 0  9992",
        "tle_line2": "2 66638  53.1592 164.1253 0001096  51.5833 308.5275 15.49336072  4957"
      },
      "geometry": {
        "type": "Point",
        "coordinates": [
          -43.303093170878185,
          30.103863433314906
        ]
      }
    },
    {
      "type": "Feature",
      "properties": {
        "norad_id": 66639,
        "name": "STARLINK-35908",
        "group": "last-30-days",
        "lat": 28.713843316702544,
        "lon": -41.79171888578893,
        "alt_km": 415.01000276578634,
        "timestamp": "2025-12-17T21:39:44.491235+00:00",
        "meta_object_name": "STARLINK-35908",
        "meta_object_id": "2025-271Y",
        "meta_epoch": "2025-12-17T13:18:25.630848",
        "meta_mean_motion": 15.49335521,
        "meta_eccentricity": 0.00011046,
        "meta_inclination": 53.1596,
        "meta_ra_of_asc_node": 164.1224,
        "meta_arg_of_pericenter": 58.4227,
        "meta_mean_anomaly": 301.6889,
        "meta_ephemeris_type": 0,
        "meta_classification_type": "U",
        "meta_norad_cat_id": 66639,
        "meta_element_set_no": 999,
        "meta_rev_at_epoch": 495,
        "meta_bstar": 0.0012875676,
        "meta_mean_motion_dot": 0.0007189,
        "meta_mean_motion_ddot": 0,
        "tle_line1": "1 66639U 25271Y   25351.55446332  .00071890  00000+0  12876-2 0  9995",
        "tle_line2": "2 66639  53.1596 164.1224 0001104  58.4227 301.6889 15.49335521  4956"
      },
      "geometry": {
        "type": "Point",
        "coordinates": [
          -41.79171888578893,
          28.713843316702544
        ]
      }
    },
    {
      "type": "Feature",
      "properties": {
        "norad_id": 66640,
        "name": "STARLINK-35921",
        "group": "last-30-days",
        "lat": 27.18884359213634,
        "lon": -40.19918489742752,
        "alt_km": 414.94758808086135,
        "timestamp": "2025-12-17T21:39:44.491244+00:00",
        "meta_object_name": "STARLINK-35921",
        "meta_object_id": "2025-271Z",
        "meta_epoch": "2025-12-17T02:27:41.322240",
        "meta_mean_motion": 15.49331878,
        "meta_eccentricity": 0.0001586,
        "meta_inclination": 53.1597,
        "meta_ra_of_asc_node": 166.2791,
        "meta_arg_of_pericenter": 66.7649,
        "meta_mean_anomaly": 293.3527,
        "meta_ephemeris_type": 0,
        "meta_classification_type": "U",
        "meta_norad_cat_id": 66640,
        "meta_element_set_no": 999,
        "meta_rev_at_epoch": 488,
        "meta_bstar": 0.001103034,
        "meta_mean_motion_dot": 0.00061432,
        "meta_mean_motion_ddot": 0,
        "tle_line1": "1 66640U 25271Z   25351.10256160  .00061432  00000+0  11030-2 0  9998",
        "tle_line2": "2 66640  53.1597 166.2791 0001586  66.7649 293.3527 15.49331878  4884"
      },
      "geometry": {
        "type": "Point",
        "coordinates": [
          -40.19918489742752,
          27.18884359213634
        ]
      }
    },
    {
      "type": "Feature",
      "properties": {
        "norad_id": 66641,
        "name": "STARLINK-35923",
        "group": "last-30-days",
        "lat": 21.56781577791869,
        "lon": -34.80183707320758,
        "alt_km": 416.0682050116202,
        "timestamp": "2025-12-17T21:39:44.491253+00:00",
        "meta_object_name": "STARLINK-35923",
        "meta_object_id": "2025-271AA",
        "meta_epoch": "2025-12-17T14:48:50.720544",
        "meta_mean_motion": 15.49309244,
        "meta_eccentricity": 0.00010838,
        "meta_inclination": 53.1595,
        "meta_ra_of_asc_node": 163.8017,
        "meta_arg_of_pericenter": 84.7351,
        "meta_mean_anomaly": 275.3782,
        "meta_ephemeris_type": 0,
        "meta_classification_type": "U",
        "meta_norad_cat_id": 66641,
        "meta_element_set_no": 999,
        "meta_rev_at_epoch": 496,
        "meta_bstar": 0.0012075903,
        "meta_mean_motion_dot": 0.00067294,
        "meta_mean_motion_ddot": 0,
        "tle_line1": "1 66641U 25271AA  25351.61725371  .00067294  00000+0  12076-2 0  9993",
        "tle_line2": "2 66641  53.1595 163.8017 0001083  84.7351 275.3782 15.49309244  4963"
      },
      "geometry": {
        "type": "Point",
        "coordinates": [
          -34.80183707320758,
          21.56781577791869
        ]
      }
    },
    {
      "type": "Feature",
      "properties": {
        "norad_id": 66642,
        "name": "STARLINK-35926",
        "group": "last-30-days",
        "lat": 23.02199016781433,
        "lon": -36.136387537137935,
        "alt_km": 415.85119217385545,
        "timestamp": "2025-12-17T21:39:44.491264+00:00",
        "meta_object_name": "STARLINK-35926",
        "meta_object_id": "2025-271AB",
        "meta_epoch": "2025-12-17T14:49:20.395488",
        "meta_mean_motion": 15.49320494,
        "meta_eccentricity": 8.386e-05,
        "meta_inclination": 53.1593,
        "meta_ra_of_asc_node": 163.8042,
        "meta_arg_of_pericenter": 83.2614,
        "meta_mean_anomaly": 276.849,
        "meta_ephemeris_type": 0,
        "meta_classification_type": "U",
        "meta_norad_cat_id": 66642,
        "meta_element_set_no": 999,
        "meta_rev_at_epoch": 492,
        "meta_bstar": 0.0013518654,
        "meta_mean_motion_dot": 0.00075497,
        "meta_mean_motion_ddot": 0,
        "tle_line1": "1 66642U 25271AB  25351.61759717  .00075497  00000+0  13519-2 0  9992",
        "tle_line2": "2 66642  53.1593 163.8042 0000838  83.2614 276.8490 15.49320494  4921"
      },
      "geometry": {
        "type": "Point",
        "coordinates": [
          -36.136387537137935,
          23.02199016781433
        ]
      }
    },
    {
      "type": "Feature",
      "properties": {
        "norad_id": 66643,
        "name": "STARLINK-35918",
        "group": "last-30-days",
        "lat": 25.96961175670719,
        "lon": -38.96837821821674,
        "alt_km": 415.18333703496864,
        "timestamp": "2025-12-17T21:39:44.491273+00:00",
        "meta_object_name": "STARLINK-35918",
        "meta_object_id": "2025-271AC",
        "meta_epoch": "2025-12-17T13:17:27.478464",
        "meta_mean_motion": 15.49296755,
        "meta_eccentricity": 0.000136,
        "meta_inclination": 53.1596,
        "meta_ra_of_asc_node": 164.1184,
        "meta_arg_of_pericenter": 84.6792,
        "meta_mean_anomaly": 275.4372,
        "meta_ephemeris_type": 0,
        "meta_classification_type": "U",
        "meta_norad_cat_id": 66643,
        "meta_element_set_no": 999,
        "meta_rev_at_epoch": 495,
        "meta_bstar": 0.0014600477,
        "meta_mean_motion_dot": 0.00081571,
        "meta_mean_motion_ddot": 0,
        "tle_line1": "1 66643U 25271AC  25351.55379026  .00081571  00000+0  14600-2 0  9999",
        "tle_line2": "2 66643  53.1596 164.1184 0001360  84.6792 275.4372 15.49296755  4958"
      },
      "geometry": {
        "type": "Point",
        "coordinates": [
          -38.96837821821674,
          25.96961175670719
        ]
      }
    },
    {
      "type": "Feature",
      "properties": {
        "norad_id": 66644,
        "name": "STARLINK-35938",
        "group": "last-30-days",
        "lat": 24.467062873722835,
        "lon": -37.50132556610303,
        "alt_km": 415.6003092202491,
        "timestamp": "2025-12-17T21:39:44.491282+00:00",
        "meta_object_name": "STARLINK-35938",
        "meta_object_id": "2025-271AD",
        "meta_epoch": "2025-12-17T11:44:03.037920",
        "meta_mean_motion": 15.49316271,
        "meta_eccentricity": 6.197e-05,
        "meta_inclination": 53.1597,
        "meta_ra_of_asc_node": 164.4243,
        "meta_arg_of_pericenter": 94.4542,
        "meta_mean_anomaly": 265.6538,
        "meta_ephemeris_type": 0,
        "meta_classification_type": "U",
        "meta_norad_cat_id": 66644,
        "meta_element_set_no": 999,
        "meta_rev_at_epoch": 494,
        "meta_bstar": 0.00096565675,
        "meta_mean_motion_dot": 0.00053641,
        "meta_mean_motion_ddot": 0,
        "tle_line1": "1 66644U 25271AD  25351.48892405  .00053641  00000+0  96566-3 0  9992",
        "tle_line2": "2 66644  53.1597 164.4243 0000619  94.4542 265.6538 15.49316271  4947"
      },
      "geometry": {
        "type": "Point",
        "coordinates": [
          -37.50132556610303,
          24.467062873722835
        ]
      }
    }
  ]
}